[{"OBJECT_NAME":"LEMUR-2-DELOITTE-1","OBJECT_ID":"2025-052BB","EPOCH":"2026-03-09T22:32:58.708896","MEAN_MOTION":14.9679712,"ECCENTRICITY":0.00030112,"INCLINATION":97.7035,"RA_OF_ASC_NODE":323.209,"ARG_OF_PERICENTER":78.3841,"MEAN_ANOMALY":281.7719,"EPHEMERIS_TYPE":0,"CLASSIFICATION_TYPE":"U","NORAD_CAT_ID":63259,"ELEMENT_SET_NO":999,"REV_AT_EPOCH":5384,"BSTAR":0.00044206323,"MEAN_MOTION_DOT":5.004e-5,"MEAN_MOTION_DDOT":0},{"OBJECT_NAME":"STARLINK-36197","OBJECT_ID":"2025-304P","EPOCH":"2026-03-09T17:24:06.651936","MEAN_MOTION":14.98335798,"ECCENTRICITY":0.00037278,"INCLINATION":70.0023,"RA_OF_ASC_NODE":174.2194,"ARG_OF_PERICENTER":271.554,"MEAN_ANOMALY":88.5192,"EPHEMERIS_TYPE":0,"CLASSIFICATION_TYPE":"U","NORAD_CAT_ID":67205,"ELEMENT_SET_NO":999,"REV_AT_EPOCH":1386,"BSTAR":0.00073767702,"MEAN_MOTION_DOT":8.721e-5,"MEAN_MOTION_DDOT":0}]
